{
    "links": {
        "self": "http://www.neowsapp.com/rest/v1/neo/3430407?api_key=iIulBulltgU6a56xZRHN4H3l9WmuAYTsLGpBGhQ2"
    },
    "id": "3430407",
    "neo_reference_id": "3430407",
    "name": "(2008 TS10)",
    "designation": "2008 TS10",
    "nasa_jpl_url": "http://ssd.jpl.nasa.gov/sbdb.cgi?sstr=3430407",
    "absolute_magnitude_h": 29.0,
    "estimated_diameter": {
        "kilometers": {
            "estimated_diameter_min": 0.0042126461,
            "estimated_diameter_max": 0.0094197631
        },
        "meters": {
            "estimated_diameter_min": 4.2126461056,
            "estimated_diameter_max": 9.4197630572
        },
        "miles": {
            "estimated_diameter_min": 0.0026176161,
            "estimated_diameter_max": 0.0058531676
        },
        "feet": {
            "estimated_diameter_min": 13.821017849,
            "estimated_diameter_max": 30.9047354285
        }
    },
    "is_potentially_hazardous_asteroid": false,
    "close_approach_data": [
        {
            "close_approach_date": "2001-11-01",
            "close_approach_date_full": "2001-Nov-01 01:45",
            "epoch_date_close_approach": 1004579100000,
            "relative_velocity": {
                "kilometers_per_second": "12.8331889555",
                "kilometers_per_hour": "46199.4802398144",
                "miles_per_hour": "28706.5603745669"
            },
            "miss_distance": {
                "astronomical": "0.3152409055",
                "lunar": "122.6287122395",
                "kilometers": "47159367.999671285",
                "miles": "29303472.454922333"
            },
            "orbiting_body": "Earth"
        },
        {
            "close_approach_date": "2008-09-29",
            "close_approach_date_full": "2008-Sep-29 21:38",
            "epoch_date_close_approach": 1222724280000,
            "relative_velocity": {
                "kilometers_per_second": "3.5694708323",
                "kilometers_per_hour": "12850.0949964551",
                "miles_per_hour": "7984.5493048807"
            },
            "miss_distance": {
                "astronomical": "0.0107291538",
                "lunar": "4.1736408282",
                "kilometers": "1605058.555382406",
                "miles": "997337.1391769628"
            },
            "orbiting_body": "Earth"
        },
        {
            "close_approach_date": "2015-11-03",
            "close_approach_date_full": "2015-Nov-03 04:35",
            "epoch_date_close_approach": 1446525300000,
            "relative_velocity": {
                "kilometers_per_second": "13.3215152526",
                "kilometers_per_hour": "47957.4549095137",
                "miles_per_hour": "29798.8974686365"
            },
            "miss_distance": {
                "astronomical": "0.3308938246",
                "lunar": "128.7176977694",
                "kilometers": "49501011.356313602",
                "miles": "30758502.1661156276"
            },
            "orbiting_body": "Earth"
        }
    ],
    "orbital_data": {
        "orbit_id": "7",
        "orbit_determination_date": "2017-04-06 09:02:37",
        "first_observation_date": "2008-10-08",
        "last_observation_date": "2008-10-22",
        "data_arc_in_days": 14,
        "observations_used": 17,
        "orbit_uncertainty": "8",
        "minimum_orbit_intersection": ".00322981",
        "jupiter_tisserand_invariant": "5.098",
        "epoch_osculation": "2454750.5",
        "eccentricity": ".2025751515361287",
        "semi_major_axis": "1.258414506521429",
        "inclination": "1.468422403839801",
        "ascending_node_longitude": "5.638620086557395",
        "orbital_period": "515.6250415701534",
        "perihelion_distance": "1.003490997167588",
        "perihelion_argument": "345.3688517862744",
        "aphelion_distance": "1.51333801587527",
        "perihelion_time": "2454724.853373901637",
        "mean_anomaly": "17.90600659598592",
        "mean_motion": ".6981817618937737",
        "equinox": "J2000",
        "orbit_class": {
            "orbit_class_type": "APO",
            "orbit_class_description": "Near-Earth asteroid orbits which cross the Earth’s orbit similar to that of 1862 Apollo",
            "orbit_class_range": "a (semi-major axis) > 1.0 AU; q (perihelion) < 1.017 AU"
        }
    },
    "is_sentry_object": false
}